{
  "type": "FeatureCollection",
  "features": [
    {
      "type": "Feature",
      "properties": {"name": "Nərimanov", "name_alt": "Nərimanov r."},
      "geometry": {
        "type": "Polygon",
        "coordinates": [[
          [49.820, 40.420], [49.880, 40.420], [49.900, 40.410],
          [49.895, 40.390], [49.870, 40.378], [49.840, 40.382],
          [49.820, 40.395], [49.820, 40.420]
        ]]
      }
    },
    {
      "type": "Feature",
      "properties": {"name": "Nəsimi", "name_alt": "Nəsimi r."},
      "geometry": {
        "type": "Polygon",
        "coordinates": [[
          [49.820, 40.390], [49.840, 40.382], [49.870, 40.378],
          [49.870, 40.360], [49.845, 40.352], [49.820, 40.358],
          [49.810, 40.372], [49.820, 40.390]
        ]]
      }
    },
    {
      "type": "Feature",
      "properties": {"name": "Nizami", "name_alt": "Nizami r."},
      "geometry": {
        "type": "Polygon",
        "coordinates": [[
          [49.780, 40.415], [49.820, 40.420], [49.820, 40.395],
          [49.810, 40.372], [49.790, 40.368], [49.770, 40.378],
          [49.765, 40.395], [49.780, 40.415]
        ]]
      }
    },
    {
      "type": "Feature",
      "properties": {"name": "Yasamal", "name_alt": "Yasamal r."},
      "geometry": {
        "type": "Polygon",
        "coordinates": [[
          [49.740, 40.425], [49.780, 40.430], [49.820, 40.425],
          [49.820, 40.420], [49.780, 40.415], [49.765, 40.395],
          [49.748, 40.398], [49.738, 40.412], [49.740, 40.425]
        ]]
      }
    },
    {
      "type": "Feature",
      "properties": {"name": "Xətai", "name_alt": "Xətai r."},
      "geometry": {
        "type": "Polygon",
        "coordinates": [[
          [49.870, 40.378], [49.895, 40.390], [49.920, 40.385],
          [49.935, 40.370], [49.920, 40.350], [49.895, 40.342],
          [49.870, 40.348], [49.860, 40.360], [49.870, 40.378]
        ]]
      }
    },
    {
      "type": "Feature",
      "properties": {"name": "Səbail", "name_alt": "Səbail r."},
      "geometry": {
        "type": "Polygon",
        "coordinates": [[
          [49.810, 40.372], [49.820, 40.358], [49.845, 40.352],
          [49.860, 40.360], [49.870, 40.348], [49.855, 40.330],
          [49.825, 40.325], [49.795, 40.335], [49.785, 40.352],
          [49.790, 40.368], [49.810, 40.372]
        ]]
      }
    },
    {
      "type": "Feature",
      "properties": {"name": "Sabunçu", "name_alt": "Sabunçu r."},
      "geometry": {
        "type": "Polygon",
        "coordinates": [[
          [49.840, 40.420], [49.880, 40.420], [49.920, 40.435],
          [49.950, 40.450], [49.960, 40.475], [49.940, 40.490],
          [49.900, 40.485], [49.870, 40.465], [49.850, 40.450],
          [49.840, 40.435], [49.840, 40.420]
        ]]
      }
    },
    {
      "type": "Feature",
      "properties": {"name": "Binəqədi", "name_alt": "Binəqədi r."},
      "geometry": {
        "type": "Polygon",
        "coordinates": [[
          [49.740, 40.425], [49.780, 40.430], [49.820, 40.425],
          [49.840, 40.435], [49.840, 40.460], [49.810, 40.480],
          [49.775, 40.490], [49.740, 40.480], [49.720, 40.460],
          [49.720, 40.440], [49.740, 40.425]
        ]]
      }
    },
    {
      "type": "Feature",
      "properties": {"name": "Suraxanı", "name_alt": "Suraxanı r."},
      "geometry": {
        "type": "Polygon",
        "coordinates": [[
          [49.920, 40.385], [49.960, 40.390], [49.995, 40.395],
          [50.020, 40.385], [50.015, 40.360], [49.990, 40.345],
          [49.960, 40.340], [49.935, 40.348], [49.920, 40.360],
          [49.920, 40.385]
        ]]
      }
    },
    {
      "type": "Feature",
      "properties": {"name": "Xəzər", "name_alt": "Xəzər r."},
      "geometry": {
        "type": "Polygon",
        "coordinates": [[
          [49.960, 40.390], [50.020, 40.400], [50.080, 40.415],
          [50.130, 40.430], [50.160, 40.455], [50.150, 40.490],
          [50.100, 40.510], [50.040, 40.515], [49.990, 40.500],
          [49.960, 40.475], [49.950, 40.450], [49.960, 40.420],
          [49.960, 40.390]
        ]]
      }
    },
    {
      "type": "Feature",
      "properties": {"name": "Qaradağ", "name_alt": "Qaradağ r."},
      "geometry": {
        "type": "Polygon",
        "coordinates": [[
          [49.740, 40.330], [49.795, 40.335], [49.825, 40.325],
          [49.855, 40.330], [49.895, 40.342], [49.935, 40.348],
          [49.960, 40.340], [49.990, 40.330], [50.000, 40.295],
          [49.980, 40.250], [49.920, 40.220], [49.840, 40.210],
          [49.780, 40.230], [49.740, 40.275], [49.730, 40.310],
          [49.740, 40.330]
        ]]
      }
    },
    {
      "type": "Feature",
      "properties": {"name": "Pirallahı", "name_alt": "Pirallahı r."},
      "geometry": {
        "type": "Polygon",
        "coordinates": [[
          [50.320, 40.480], [50.360, 40.475], [50.390, 40.495],
          [50.385, 40.520], [50.350, 40.530], [50.315, 40.520],
          [50.305, 40.500], [50.320, 40.480]
        ]]
      }
    }
  ]
}
